INTERCOSMOS 24          
1 20261U 89080A   25209.61178572  .00000743  00000+0  20905-3 0  9993
2 20261  82.6024 250.1186 1191127  92.6654 281.1042 12.59101301638594
SL-14 R/B               
1 20262U 89080C   25209.35160289  .00000157  00000+0  44991-4 0  9992
2 20262  82.5966 317.2496 1230638 337.5818  17.5603 12.50320572632112
DELTA 1 R/B             
1 20323U 89089B   25209.63770847  .00000304  00000+0  83915-4 0  9990
2 20323  97.0983  87.4616 0070799 109.9290 250.9553 14.50421332863250
ARIANE 40 R/B           
1 20443U 90005H   25209.61941285  .00000265  00000+0  98253-4 0  9994
2 20443  98.3436 271.5259 0010766 153.1023 207.0726 14.39662450860563
DELTA 2 R/B(1)          
1 20453U 90008B   25209.59634078  .00029758  00000+0  63964-3 0  9992
2 20453  35.6080 178.6202 0132589  13.6865 346.7409 15.34804002891481
COSMOS 2058             
1 20465U 90010A   25209.62626564  .00002862  00000+0  17867-3 0  9991
2 20465  82.4740 267.6916 0008275  35.2770 324.9005 15.09106682908421
SL-14 R/B               
1 20466U 90010B   25209.27104531  .00000431  00000+0  49694-4 0  9992
2 20466  82.5034 118.1238 0018977 323.3419  36.6496 14.83291476895217
SL-14 R/B               
1 20511U 90018B   25209.61368649  .00000367  00000+0  43252-4 0  9993
2 20511  82.5195  72.5081 0017805 107.9297 252.3860 14.81873087889390
HST                     
1 20580U 90037B   25209.13000305  .00006443  00000+0  23758-3 0  9998
2 20580  28.4678 127.3143 0001920 178.5807 181.4793 15.25686912738940
SL-16 R/B               
1 20625U 90046B   25209.60087880  .00000136  00000+0  94898-4 0  9990
2 20625  70.9984  48.5222 0016194 283.0391  76.8923 14.14967803816692
COSMOS 2084             
1 20663U 90055A   25209.57351950  .00003128  00000+0  23353-3 0  9991
2 20663  62.7917  18.9242 0054555 158.8483 201.4890 15.03873147902596
SL-6 R/B(2)             
1 20666U 90055D   25209.60781690  .00001873  00000+0  15588-3 0  9992
2 20666  62.7845 295.0120 0020016 203.8468 156.1705 15.02183316904517
SL-8 R/B                
1 20775U 90078B   25209.63470101  .00019146  00000+0  62227-3 0  9997
2 20775  82.9062  91.3115 0399213  42.6560 320.4924 14.79443822776064
SL-8 R/B                
1 21088U 91006B   25209.60086774  .00000097  00000+0  82122-4 0  9995
2 21088  82.9454 336.7448 0021287 304.7484  65.9660 13.77466424733221
OKEAN-3                 
1 21397U 91039A   25209.51390070  .00003042  00000+0  22393-3 0  9997
2 21397  82.5172 193.7169 0015082  20.5529 339.6300 15.02956500831340
COSMOS 2151             
1 21422U 91042A   25209.60684295  .00001820  00000+0  14792-3 0  9991
2 21422  82.4984 299.5823 0014111  96.8308 263.4521 14.98976006829617
SL-14 R/B               
1 21423U 91042B   25209.62044491  .00000332  00000+0  39313-4 0  9996
2 21423  82.4910  70.2826 0015613 256.4928 103.4546 14.81571303819896
ERS-1                   
1 21574U 91050A   25209.57661357  .00000261  00000+0  98507-4 0  9993
2 21574  98.7924 217.1473 0032746 145.3049 215.0282 14.39220870783490
ARIANE 40 R/B           
1 21610U 91050F   25209.60527336  .00000289  00000+0  99543-4 0  9997
2 21610  98.2369 264.8257 0003929  50.7772 309.3767 14.42663110786682
INTERCOSMOS 25          
1 21819U 91086A   25209.12484138  .00000558  00000+0  11055-3 0  9996
2 21819  82.6028  85.7124 1489508 240.7546 103.6636 12.11126596469490
SL-8 R/B                
1 21876U 92008B   25209.60448426  .00000103  00000+0  90434-4 0  9992
2 21876  82.9245  74.4343 0035698  42.1948  15.3876 13.75938797678606
SL-8 R/B                
1 21938U 92020B   25209.43516227  .00000097  00000+0  84991-4 0  9994
2 21938  82.9332 320.3069 0028648 201.2346 227.3286 13.75516998670301
USA 81                  
1 21949U 92023A   25209.61625776  .00000150  00000+0  48134-4 0  9998
2 21949  85.0052 260.6742 0002465  75.1673 284.9792 14.32256192 62712
COSMOS 2219             
1 22219U 92076A   25209.20586902 -.00000187  00000+0 -73328-4 0  9994
2 22219  71.0612 127.3261 0018266 191.3014 168.7701 14.14036687686649
SL-16 R/B               
1 22220U 92076B   25209.61681875 -.00000096  00000+0 -23931-4 0  9990
2 22220  71.0010 300.3643 0010658  73.7502  26.2955 14.16810434690097
COSMOS 2221             
1 22236U 92080A   25209.30579380  .00001745  00000+0  15707-3 0  9996
2 22236  82.5061 133.7709 0013321 221.7818 138.2388 14.95008164747254
SL-16 R/B               
1 22285U 92093B   25209.42876615  .00000175  00000+0  11393-3 0  9991
2 22285  71.0215 115.0357 0006299 282.7859  77.2560 14.15399722681427
COSMOS 2228             
1 22286U 92094A   25209.59636652  .00001814  00000+0  15957-3 0  9997
2 22286  82.5171  91.6524 0018072 341.5481  18.5083 14.95863385742546
SL-16 R/B               
1 22566U 93016B   25209.58824837  .00000060  00000+0  55140-4 0  9997
2 22566  71.0090 325.8463 0012087 298.5289  61.4616 14.15260479670468
COSMOS 2242             
1 22626U 93024A   25209.48808171  .00002063  00000+0  18452-3 0  9994
2 22626  82.5203 120.9290 0016287 345.5588  14.5166 14.95312322746872
SL-16 R/B               
1 22803U 93059B   25209.16597235  .00000202  00000+0  12391-3 0  9999
2 22803  70.9905 124.5878 0017761 199.3747 160.6704 14.17181111647720
ARIANE 40 R/B           
1 22830U 93061H   25209.59872853  .00000212  00000+0  93781-4 0  9995
2 22830  98.5248 277.5006 0009955 222.5709 137.4704 14.32682650662013
COSMOS 2278             
1 23087U 94023A   25209.61000405  .00000223  00000+0  14145-3 0  9996
2 23087  71.0528 283.8911 0008597 358.1154   1.9935 14.14304423613129
SL-16 R/B               
1 23088U 94023B   25209.33584735 -.00000014  00000+0  17577-4 0  9991
2 23088  70.9980 182.0337 0005512 274.4269  85.6223 14.14969960614351
SL-16 R/B               
1 23343U 94074B   25209.63265131  .00000413  00000+0  62455-4 0  9997
2 23343  97.7372 244.2352 0005591 221.3080 251.8759 14.79080362654125
SL-16 R/B               
1 23405U 94077B   25209.12226734 -.00000016  00000+0  16547-4 0  9990
2 23405  70.9826 104.9238 0002292 198.2369 161.8671 14.15520491584456
ARIANE 40+ R/B          
1 23561U 95021B   25209.18959365  .00000278  00000+0  10308-3 0  9999
2 23561  98.4816 278.3225 0007985  94.9992 323.2445 14.39557266586948
SL-16 R/B               
1 23705U 95058B   25209.61281048  .00000256  00000+0  15535-3 0  9996
2 23705  71.0222 290.6879 0010477 103.5313 256.6978 14.15455922536149
SL-16 R/B               
1 24298U 96051B   25209.58939261 -.00000148  00000+0 -53500-4 0  9998
2 24298  70.7654 289.5450 0013279 109.3156 250.9401 14.12404801490005
ORBVIEW 2 (SEASTAR)     
1 24883U 97037A   25209.51769661  .00000265  00000+0  10860-3 0  9990
2 24883  98.8313   3.2631 0002447  28.1624 331.9693 14.35276335476318
SL-16 R/B               
1 25400U 98043G   25209.48379911  .00000058  00000+0  43152-4 0  9996
2 25400  98.7891 156.7172 0008983 309.3956  50.6427 14.25980324407033
SL-16 R/B               
1 25407U 98045B   25209.59222595 -.00000220  00000+0 -87119-4 0  9996
2 25407  71.0120 292.8316 0007637 349.0902  11.0055 14.16147305395373
ISS (ZARYA)             
1 25544U 98067A   25209.66691461  .00012424  00000+0  22393-3 0  9991
2 25544  51.6363 101.4799 0002251 122.9566 339.8304 15.50175539521591
CZ-4B R/B               
1 25732U 99025C   25209.60919830  .00000064  00000+0  52118-4 0  9998
2 25732  98.6971 253.7828 0036015 269.1044 205.5547 14.18200182356400
OKEAN-O                 
1 25860U 99039A   25209.61108261  .00000631  00000+0  90619-4 0  9992
2 25860  97.9806 266.3503 0001311  68.2278 291.9073 14.79858188401247
SL-16 R/B               
1 25861U 99039B   25209.60522331  .00000512  00000+0  72487-4 0  9991
2 25861  98.0332 263.5894 0013555 263.5708  96.3961 14.81326887403689
DELTA 2 R/B             
1 25876U 99041E   25209.24680757  .00002075  00000+0  37399-3 0  9995
2 25876  51.7611 117.0485 0506982  46.4648 317.7259 14.10874600331337
HELIOS 1B               
1 25977U 99064A   25209.58800977  .00001344  00000+0  15815-3 0  9994
2 25977  98.1893 100.2006 0002505  82.1839 277.9660 14.86585233651950
TERRA                   
1 25994U 99068A   25209.61829940  .00000423  00000+0  95982-4 0  9993
2 25994  97.9955 266.1683 0002895 143.3100 334.6072 14.60744922362367
SL-16 R/B               
1 26070U 00006B   25209.40836458  .00000019  00000+0  34002-4 0  9999
2 26070  70.9998 209.4030 0016103 170.6459 189.4967 14.15778063316815
TITAN 4B R/B            
1 26474U 00047B   25209.58147251  .00002869  00000+0  19292-3 0  9995
2 26474  67.9912 309.6176 0047910 290.5470  69.0540 15.07418678359119
ENVISAT                 
1 27386U 02009A   25209.51482362  .00000102  00000+0  46967-4 0  9994
2 27386  98.3360 163.9216 0001282  82.9014  30.9478 14.38931023226939
IDEFIX & ARIANE 42P R/B 
1 27422U 02021B   25209.45593317  .00000233  00000+0  10553-3 0  9991
2 27422  98.5609 146.0936 0012783 124.1288 236.1109 14.30815086211958
AQUA                    
1 27424U 02022A   25209.64203769  .00000877  00000+0  18720-3 0  9992
2 27424  98.3802 168.5216 0000724  76.7721  36.4620 14.61369696236006
CZ-4B R/B               
1 27432U 02024C   25209.64136149  .00000028  00000+0  37918-4 0  9999
2 27432  98.9208 258.7193 0049237 299.6146 173.2816 14.14492958197566
MIDORI II (ADEOS-II)    
1 27597U 02056A   25209.49160063  .00000252  00000+0  11740-3 0  9994
2 27597  98.7398 161.9181 0000581  26.5862 333.5349 14.29074949178270
H-2A R/B                
1 27601U 02056E   25209.54451443  .00000279  00000+0  11236-3 0  9990
2 27601  98.2820 173.9488 0071649 109.2933   5.9816 14.33532309181991
CZ-4B R/B               
1 28059U 03049C   25209.52136723  .00000298  00000+0  80465-4 0  9992
2 28059  98.6621 191.0110 0048086 194.4871 165.4950 14.54715625154001
CZ-2C R/B               
1 28222U 04012C   25209.62064586  .00018520  00000+0  37846-3 0  9994
2 28222  97.7627 251.9101 0023155  51.2527 309.0786 15.45919968169481
